GSAT0233 (GALILEO 33)   
1 67160U 25302A   25352.14605887 -.00000007  00000+0  00000+0 0  9994
2 67160  54.2406 107.2544 0008423 237.6458 122.2317  1.72906186    28
ARIANE 6 R/B            
1 67161U 25302B   26014.31699228 -.00000032  00000+0  00000+0 0  9990
2 67161  54.2437 106.4249 0005217 261.0325  98.9126  1.72972424   506
GSAT0234 (GALILEO 34)   
1 67162U 25302C   25356.18244914  .00000006  00000+0  00000+0 0  9992
2 67162  54.2447 107.1379 0000312 196.8367 159.4994  1.73130437   127
STARLINK-35755          
1 67163U 25303A   26015.83337963 -.00003010  00000+0 -64802-4 0  9991
2 67163  42.9986 252.9698 0002080 256.5106 270.8037 15.40708336  5659
STARLINK-36201          
1 67164U 25303B   26015.83337963 -.00004617  00000+0 -10334-3 0  9996
2 67164  42.9986 252.9379 0001354 268.4132 271.4585 15.40696194  5945
STARLINK-36186          
1 67165U 25303C   26015.83337963 -.00006074  00000+0 -13824-3 0  9993
2 67165  42.9985 252.8471 0001059 275.9057 301.2659 15.40704351  5947
STARLINK-36174          
1 67166U 25303D   26015.83337963 -.00004817  00000+0 -10815-3 0  9994
2 67166  42.9987 252.9089 0001413 255.5939 296.7205 15.40693756  5786
STARLINK-36198          
1 67167U 25303E   26015.83337963 -.00002656  00000+0 -56369-4 0  9999
2 67167  42.9986 252.8175 0001365 268.6798 320.9590 15.40689683  5944
STARLINK-35903          
1 67168U 25303F   26015.83337963 -.00004602  00000+0 -10299-3 0  9994
2 67168  42.9986 252.8775 0001129 279.1082 285.6433 15.40696750  5904
STARLINK-35839          
1 67169U 25303G   26015.83337963 -.00005420  00000+0 -12259-3 0  9992
2 67169  42.9987 252.7570 0001726 264.9188 349.5965 15.40693817  5653
STARLINK-35863          
1 67170U 25303H   26015.83337963 -.00004525  00000+0 -10114-3 0  9997
2 67170  42.9989 252.6967 0001856 264.3600  15.0342 15.40694384  5905
STARLINK-35771          
1 67171U 25303J   26015.83337963 -.00005357  00000+0 -12108-3 0  9997
2 67171  42.9985 252.7873 0001536 265.7685 336.3040 15.40695029  5655
