CCSDS_OMM_VERS = 2.0
CREATION_DATE  = 
ORIGINATOR     = 

OBJECT_NAME    = GSAT0233 (GALILEO 33)
OBJECT_ID      = 2025-302A
CENTER_NAME    = EARTH
REF_FRAME      = TEME
TIME_SYSTEM    = UTC
MEAN_ELEMENT_THEORY = SGP/SGP4

EPOCH          = 2025-12-18T03:30:19.486368
MEAN_MOTION    = 1.72906186
ECCENTRICITY   = .00084238
INCLINATION    = 54.2406
RA_OF_ASC_NODE = 107.2544
ARG_OF_PERICENTER = 237.6458
MEAN_ANOMALY   = 122.2317

EPHEMERIS_TYPE = 0
CLASSIFICATION_TYPE = U
NORAD_CAT_ID   = 67160
ELEMENT_SET_NO = 999
REV_AT_EPOCH   = 2
BSTAR          = 0
MEAN_MOTION_DOT = -.7E-7
MEAN_MOTION_DDOT = 0

CCSDS_OMM_VERS = 2.0
CREATION_DATE  = 
ORIGINATOR     = 

OBJECT_NAME    = ARIANE 6 R/B
OBJECT_ID      = 2025-302B
CENTER_NAME    = EARTH
REF_FRAME      = TEME
TIME_SYSTEM    = UTC
MEAN_ELEMENT_THEORY = SGP/SGP4

EPOCH          = 2026-01-14T07:36:28.132992
MEAN_MOTION    = 1.72972424
ECCENTRICITY   = .00052175
INCLINATION    = 54.2437
RA_OF_ASC_NODE = 106.4249
ARG_OF_PERICENTER = 261.0325
MEAN_ANOMALY   = 98.9126

EPHEMERIS_TYPE = 0
CLASSIFICATION_TYPE = U
NORAD_CAT_ID   = 67161
ELEMENT_SET_NO = 999
REV_AT_EPOCH   = 50
BSTAR          = 0
MEAN_MOTION_DOT = -.32E-6
MEAN_MOTION_DDOT = 0

CCSDS_OMM_VERS = 2.0
CREATION_DATE  = 
ORIGINATOR     = 

OBJECT_NAME    = GSAT0234 (GALILEO 34)
OBJECT_ID      = 2025-302C
CENTER_NAME    = EARTH
REF_FRAME      = TEME
TIME_SYSTEM    = UTC
MEAN_ELEMENT_THEORY = SGP/SGP4

EPOCH          = 2025-12-22T04:22:43.605696
MEAN_MOTION    = 1.73130437
ECCENTRICITY   = .0000312
INCLINATION    = 54.2447
RA_OF_ASC_NODE = 107.1379
ARG_OF_PERICENTER = 196.8367
MEAN_ANOMALY   = 159.4994

EPHEMERIS_TYPE = 0
CLASSIFICATION_TYPE = U
NORAD_CAT_ID   = 67162
ELEMENT_SET_NO = 999
REV_AT_EPOCH   = 12
BSTAR          = 0
MEAN_MOTION_DOT = .6E-7
MEAN_MOTION_DDOT = 0

CCSDS_OMM_VERS = 2.0
CREATION_DATE  = 
ORIGINATOR     = 

OBJECT_NAME    = STARLINK-35755
OBJECT_ID      = 2025-303A
CENTER_NAME    = EARTH
REF_FRAME      = TEME
TIME_SYSTEM    = UTC
MEAN_ELEMENT_THEORY = SGP/SGP4

EPOCH          = 2026-01-15T20:00:04.000032
MEAN_MOTION    = 15.40708336
ECCENTRICITY   = .000208
INCLINATION    = 42.9986
RA_OF_ASC_NODE = 252.9698
ARG_OF_PERICENTER = 256.5106
MEAN_ANOMALY   = 270.8037

EPHEMERIS_TYPE = 0
CLASSIFICATION_TYPE = U
NORAD_CAT_ID   = 67163
ELEMENT_SET_NO = 999
REV_AT_EPOCH   = 565
BSTAR          = -.64802E-4
MEAN_MOTION_DOT = -.301E-4
MEAN_MOTION_DDOT = 0

CCSDS_OMM_VERS = 2.0
CREATION_DATE  = 
ORIGINATOR     = 

OBJECT_NAME    = STARLINK-36201
OBJECT_ID      = 2025-303B
CENTER_NAME    = EARTH
REF_FRAME      = TEME
TIME_SYSTEM    = UTC
MEAN_ELEMENT_THEORY = SGP/SGP4

EPOCH          = 2026-01-15T20:00:04.000032
MEAN_MOTION    = 15.40696194
ECCENTRICITY   = .0001354
INCLINATION    = 42.9986
RA_OF_ASC_NODE = 252.9379
ARG_OF_PERICENTER = 268.4132
MEAN_ANOMALY   = 271.4585

EPHEMERIS_TYPE = 0
CLASSIFICATION_TYPE = U
NORAD_CAT_ID   = 67164
ELEMENT_SET_NO = 999
REV_AT_EPOCH   = 594
BSTAR          = -.10334E-3
MEAN_MOTION_DOT = -.4617E-4
MEAN_MOTION_DDOT = 0

CCSDS_OMM_VERS = 2.0
CREATION_DATE  = 
ORIGINATOR     = 

OBJECT_NAME    = STARLINK-36186
OBJECT_ID      = 2025-303C
CENTER_NAME    = EARTH
REF_FRAME      = TEME
TIME_SYSTEM    = UTC
MEAN_ELEMENT_THEORY = SGP/SGP4

EPOCH          = 2026-01-15T20:00:04.000032
MEAN_MOTION    = 15.40704351
ECCENTRICITY   = .0001059
INCLINATION    = 42.9985
RA_OF_ASC_NODE = 252.8471
ARG_OF_PERICENTER = 275.9057
MEAN_ANOMALY   = 301.2659

EPHEMERIS_TYPE = 0
CLASSIFICATION_TYPE = U
NORAD_CAT_ID   = 67165
ELEMENT_SET_NO = 999
REV_AT_EPOCH   = 594
BSTAR          = -.13824E-3
MEAN_MOTION_DOT = -.6074E-4
MEAN_MOTION_DDOT = 0

CCSDS_OMM_VERS = 2.0
CREATION_DATE  = 
ORIGINATOR     = 

OBJECT_NAME    = STARLINK-36174
OBJECT_ID      = 2025-303D
CENTER_NAME    = EARTH
REF_FRAME      = TEME
TIME_SYSTEM    = UTC
MEAN_ELEMENT_THEORY = SGP/SGP4

EPOCH          = 2026-01-15T20:00:04.000032
MEAN_MOTION    = 15.40693756
ECCENTRICITY   = .0001413
INCLINATION    = 42.9987
RA_OF_ASC_NODE = 252.9089
ARG_OF_PERICENTER = 255.5939
MEAN_ANOMALY   = 296.7205

EPHEMERIS_TYPE = 0
CLASSIFICATION_TYPE = U
NORAD_CAT_ID   = 67166
ELEMENT_SET_NO = 999
REV_AT_EPOCH   = 578
BSTAR          = -.10815E-3
MEAN_MOTION_DOT = -.4817E-4
MEAN_MOTION_DDOT = 0

CCSDS_OMM_VERS = 2.0
CREATION_DATE  = 
ORIGINATOR     = 

OBJECT_NAME    = STARLINK-36198
OBJECT_ID      = 2025-303E
CENTER_NAME    = EARTH
REF_FRAME      = TEME
TIME_SYSTEM    = UTC
MEAN_ELEMENT_THEORY = SGP/SGP4

EPOCH          = 2026-01-15T20:00:04.000032
MEAN_MOTION    = 15.40689683
ECCENTRICITY   = .0001365
INCLINATION    = 42.9986
RA_OF_ASC_NODE = 252.8175
ARG_OF_PERICENTER = 268.6798
MEAN_ANOMALY   = 320.9590

EPHEMERIS_TYPE = 0
CLASSIFICATION_TYPE = U
NORAD_CAT_ID   = 67167
ELEMENT_SET_NO = 999
REV_AT_EPOCH   = 594
BSTAR          = -.56369E-4
MEAN_MOTION_DOT = -.2656E-4
MEAN_MOTION_DDOT = 0

CCSDS_OMM_VERS = 2.0
CREATION_DATE  = 
ORIGINATOR     = 

OBJECT_NAME    = STARLINK-35903
OBJECT_ID      = 2025-303F
CENTER_NAME    = EARTH
REF_FRAME      = TEME
TIME_SYSTEM    = UTC
MEAN_ELEMENT_THEORY = SGP/SGP4

EPOCH          = 2026-01-15T20:00:04.000032
MEAN_MOTION    = 15.40696750
ECCENTRICITY   = .0001129
INCLINATION    = 42.9986
RA_OF_ASC_NODE = 252.8775
ARG_OF_PERICENTER = 279.1082
MEAN_ANOMALY   = 285.6433

EPHEMERIS_TYPE = 0
CLASSIFICATION_TYPE = U
NORAD_CAT_ID   = 67168
ELEMENT_SET_NO = 999
REV_AT_EPOCH   = 590
BSTAR          = -.10299E-3
MEAN_MOTION_DOT = -.4602E-4
MEAN_MOTION_DDOT = 0

CCSDS_OMM_VERS = 2.0
CREATION_DATE  = 
ORIGINATOR     = 

OBJECT_NAME    = STARLINK-35839
OBJECT_ID      = 2025-303G
CENTER_NAME    = EARTH
REF_FRAME      = TEME
TIME_SYSTEM    = UTC
MEAN_ELEMENT_THEORY = SGP/SGP4

EPOCH          = 2026-01-15T20:00:04.000032
MEAN_MOTION    = 15.40693817
ECCENTRICITY   = .0001726
INCLINATION    = 42.9987
RA_OF_ASC_NODE = 252.7570
ARG_OF_PERICENTER = 264.9188
MEAN_ANOMALY   = 349.5965

EPHEMERIS_TYPE = 0
CLASSIFICATION_TYPE = U
NORAD_CAT_ID   = 67169
ELEMENT_SET_NO = 999
REV_AT_EPOCH   = 565
BSTAR          = -.12259E-3
MEAN_MOTION_DOT = -.542E-4
MEAN_MOTION_DDOT = 0

CCSDS_OMM_VERS = 2.0
CREATION_DATE  = 
ORIGINATOR     = 

OBJECT_NAME    = STARLINK-35863
OBJECT_ID      = 2025-303H
CENTER_NAME    = EARTH
REF_FRAME      = TEME
TIME_SYSTEM    = UTC
MEAN_ELEMENT_THEORY = SGP/SGP4

EPOCH          = 2026-01-15T20:00:04.000032
MEAN_MOTION    = 15.40694384
ECCENTRICITY   = .0001856
INCLINATION    = 42.9989
RA_OF_ASC_NODE = 252.6967
ARG_OF_PERICENTER = 264.3600
MEAN_ANOMALY   = 15.0342

EPHEMERIS_TYPE = 0
CLASSIFICATION_TYPE = U
NORAD_CAT_ID   = 67170
ELEMENT_SET_NO = 999
REV_AT_EPOCH   = 590
BSTAR          = -.10114E-3
MEAN_MOTION_DOT = -.4525E-4
MEAN_MOTION_DDOT = 0

CCSDS_OMM_VERS = 2.0
CREATION_DATE  = 
ORIGINATOR     = 

OBJECT_NAME    = STARLINK-35771
OBJECT_ID      = 2025-303J
CENTER_NAME    = EARTH
REF_FRAME      = TEME
TIME_SYSTEM    = UTC
MEAN_ELEMENT_THEORY = SGP/SGP4

EPOCH          = 2026-01-15T20:00:04.000032
MEAN_MOTION    = 15.40695029
ECCENTRICITY   = .0001536
INCLINATION    = 42.9985
RA_OF_ASC_NODE = 252.7873
ARG_OF_PERICENTER = 265.7685
MEAN_ANOMALY   = 336.3040

EPHEMERIS_TYPE = 0
CLASSIFICATION_TYPE = U
NORAD_CAT_ID   = 67171
ELEMENT_SET_NO = 999
REV_AT_EPOCH   = 565
BSTAR          = -.12108E-3
MEAN_MOTION_DOT = -.5357E-4
MEAN_MOTION_DDOT = 0

